{
  "type": "FeatureCollection",
  "features": [
    {
      "type": "Feature",
      "properties": {
        "norad_id": 66497,
        "name": "STARLINK-35899",
        "group": "last-30-days",
        "lat": -16.199755479488978,
        "lon": -0.038383977273355456,
        "alt_km": 393.2254818041547,
        "timestamp": "2025-12-06T11:28:09.785790+00:00",
        "meta_object_name": "STARLINK-35899",
        "meta_object_id": "2025-263N",
        "meta_epoch": "2025-12-05T22:00:03.000096",
        "meta_mean_motion": 15.60895972,
        "meta_eccentricity": 0.0001724,
        "meta_inclination": 42.9994,
        "meta_ra_of_asc_node": 165.1235,
        "meta_arg_of_pericenter": 268.798,
        "meta_mean_anomaly": 20.5046,
        "meta_ephemeris_type": 0,
        "meta_classification_type": "U",
        "meta_norad_cat_id": 66497,
        "meta_element_set_no": 999,
        "meta_rev_at_epoch": 453,
        "meta_bstar": -0.026072687,
        "meta_mean_motion_dot": -0.01972612,
        "meta_mean_motion_ddot": 0,
        "tle_line1": "1 66497U 25263N   25339.91670139 -.01972612  00000+0 -26073-1 0  9996",
        "tle_line2": "2 66497  42.9994 165.1235 0001724 268.7980  20.5046 15.60895972  4539"
      },
      "geometry": {
        "type": "Point",
        "coordinates": [
          -0.038383977273355456,
          -16.199755479488978
        ]
      }
    },
    {
      "type": "Feature",
      "properties": {
        "norad_id": 66498,
        "name": "STARLINK-35907",
        "group": "last-30-days",
        "lat": -17.43704897756244,
        "lon": 1.488490008657973,
        "alt_km": 393.32343057129583,
        "timestamp": "2025-12-06T11:28:09.785800+00:00",
        "meta_object_name": "STARLINK-35907",
        "meta_object_id": "2025-263P",
        "meta_epoch": "2025-12-05T22:00:03.000096",
        "meta_mean_motion": 15.60904138,
        "meta_eccentricity": 0.00015154,
        "meta_inclination": 42.9995,
        "meta_ra_of_asc_node": 165.1183,
        "meta_arg_of_pericenter": 266.7243,
        "meta_mean_anomaly": 24.4952,
        "meta_ephemeris_type": 0,
        "meta_classification_type": "U",
        "meta_norad_cat_id": 66498,
        "meta_element_set_no": 999,
        "meta_rev_at_epoch": 453,
        "meta_bstar": -0.026245895,
        "meta_mean_motion_dot": -0.01984509,
        "meta_mean_motion_ddot": 0,
        "tle_line1": "1 66498U 25263P   25339.91670139 -.01984509  00000+0 -26246-1 0  9997",
        "tle_line2": "2 66498  42.9995 165.1183 0001515 266.7243  24.4952 15.60904138  4535"
      },
      "geometry": {
        "type": "Point",
        "coordinates": [
          1.488490008657973,
          -17.43704897756244
        ]
      }
    },
    {
      "type": "Feature",
      "properties": {
        "norad_id": 66499,
        "name": "STARLINK-35816",
        "group": "last-30-days",
        "lat": -19.872310416133438,
        "lon": 4.604024094738203,
        "alt_km": 393.44237498620987,
        "timestamp": "2025-12-06T11:28:09.785810+00:00",
        "meta_object_name": "STARLINK-35816",
        "meta_object_id": "2025-263Q",
        "meta_epoch": "2025-12-05T22:00:03.000096",
        "meta_mean_motion": 15.60904205,
        "meta_eccentricity": 0.0001552,
        "meta_inclination": 42.9996,
        "meta_ra_of_asc_node": 165.109,
        "meta_arg_of_pericenter": 266.935,
        "meta_mean_anomaly": 28.1162,
        "meta_ephemeris_type": 0,
        "meta_classification_type": "U",
        "meta_norad_cat_id": 66499,
        "meta_element_set_no": 999,
        "meta_rev_at_epoch": 453,
        "meta_bstar": -0.02620641,
        "meta_mean_motion_dot": -0.01981921,
        "meta_mean_motion_ddot": 0,
        "tle_line1": "1 66499U 25263Q   25339.91670139 -.01981921  00000+0 -26206-1 0  9999",
        "tle_line2": "2 66499  42.9996 165.1090 0001552 266.9350  28.1162 15.60904205  4535"
      },
      "geometry": {
        "type": "Point",
        "coordinates": [
          4.604024094738203,
          -19.872310416133438
        ]
      }
    },
    {
      "type": "Feature",
      "properties": {
        "norad_id": 66500,
        "name": "STARLINK-35894",
        "group": "last-30-days",
        "lat": -1.7714071640514795,
        "lon": -16.249795267502613,
        "alt_km": 403.13896693993865,
        "timestamp": "2025-12-06T11:28:09.785824+00:00",
        "meta_object_name": "STARLINK-35894",
        "meta_object_id": "2025-263R",
        "meta_epoch": "2025-12-05T22:00:03.000096",
        "meta_mean_motion": 15.5767507,
        "meta_eccentricity": 0.00015245,
        "meta_inclination": 42.9994,
        "meta_ra_of_asc_node": 165.1589,
        "meta_arg_of_pericenter": 264.3297,
        "meta_mean_anomaly": 10.5521,
        "meta_ephemeris_type": 0,
        "meta_classification_type": "U",
        "meta_norad_cat_id": 66500,
        "meta_element_set_no": 999,
        "meta_rev_at_epoch": 453,
        "meta_bstar": -0.037094243,
        "meta_mean_motion_dot": -0.02458111,
        "meta_mean_motion_ddot": 0,
        "tle_line1": "1 66500U 25263R   25339.91670139 -.02458111  00000+0 -37094-1 0  9990",
        "tle_line2": "2 66500  42.9994 165.1589 0001524 264.3297  10.5521 15.57675070  4535"
      },
      "geometry": {
        "type": "Point",
        "coordinates": [
          -16.249795267502613,
          -1.7714071640514795
        ]
      }
    },
    {
      "type": "Feature",
      "properties": {
        "norad_id": 66501,
        "name": "STARLINK-35897",
        "group": "last-30-days",
        "lat": -21.06628678116689,
        "lon": 6.1925378592736555,
        "alt_km": 393.942126611385,
        "timestamp": "2025-12-06T11:28:09.785844+00:00",
        "meta_object_name": "STARLINK-35897",
        "meta_object_id": "2025-263S",
        "meta_epoch": "2025-12-05T22:00:03.000096",
        "meta_mean_motion": 15.60851142,
        "meta_eccentricity": 0.00018095,
        "meta_inclination": 42.9994,
        "meta_ra_of_asc_node": 165.1038,
        "meta_arg_of_pericenter": 286.8905,
        "meta_mean_anomaly": 10.1121,
        "meta_ephemeris_type": 0,
        "meta_classification_type": "U",
        "meta_norad_cat_id": 66501,
        "meta_element_set_no": 999,
        "meta_rev_at_epoch": 453,
        "meta_bstar": -0.025444532,
        "meta_mean_motion_dot": -0.01927827,
        "meta_mean_motion_ddot": 0,
        "tle_line1": "1 66501U 25263S   25339.91670139 -.01927827  00000+0 -25445-1 0  9992",
        "tle_line2": "2 66501  42.9994 165.1038 0001809 286.8905  10.1121 15.60851142  4538"
      },
      "geometry": {
        "type": "Point",
        "coordinates": [
          6.1925378592736555,
          -21.06628678116689
        ]
      }
    },
    {
      "type": "Feature",
      "properties": {
        "norad_id": 66502,
        "name": "STARLINK-35922",
        "group": "last-30-days",
        "lat": -24.56209808966283,
        "lon": 11.132863340144947,
        "alt_km": 393.63816249927004,
        "timestamp": "2025-12-06T11:28:09.785865+00:00",
        "meta_object_name": "STARLINK-35922",
        "meta_object_id": "2025-263T",
        "meta_epoch": "2025-12-05T22:00:03.000096",
        "meta_mean_motion": 15.60901936,
        "meta_eccentricity": 0.00016498,
        "meta_inclination": 42.9994,
        "meta_ra_of_asc_node": 165.0894,
        "meta_arg_of_pericenter": 267.4448,
        "meta_mean_anomaly": 35.2759,
        "meta_ephemeris_type": 0,
        "meta_classification_type": "U",
        "meta_norad_cat_id": 66502,
        "meta_element_set_no": 999,
        "meta_rev_at_epoch": 453,
        "meta_bstar": -0.026178548,
        "meta_mean_motion_dot": -0.01979991,
        "meta_mean_motion_ddot": 0,
        "tle_line1": "1 66502U 25263T   25339.91670139 -.01979991  00000+0 -26179-1 0  9997",
        "tle_line2": "2 66502  42.9994 165.0894 0001649 267.4448  35.2759 15.60901936  4539"
      },
      "geometry": {
        "type": "Point",
        "coordinates": [
          11.132863340144947,
          -24.56209808966283
        ]
      }
    },
    {
      "type": "Feature",
      "properties": {
        "norad_id": 66503,
        "name": "STARLINK-35917",
        "group": "last-30-days",
        "lat": -26.798384216110748,
        "lon": 14.575185534451068,
        "alt_km": 393.77663342478627,
        "timestamp": "2025-12-06T11:28:09.785881+00:00",
        "meta_object_name": "STARLINK-35917",
        "meta_object_id": "2025-263U",
        "meta_epoch": "2025-12-05T22:00:03.000096",
        "meta_mean_motion": 15.60897792,
        "meta_eccentricity": 0.00016826,
        "meta_inclination": 42.9995,
        "meta_ra_of_asc_node": 165.0799,
        "meta_arg_of_pericenter": 270.9319,
        "meta_mean_anomaly": 35.6214,
        "meta_ephemeris_type": 0,
        "meta_classification_type": "U",
        "meta_norad_cat_id": 66503,
        "meta_element_set_no": 999,
        "meta_rev_at_epoch": 453,
        "meta_bstar": -0.026066605,
        "meta_mean_motion_dot": -0.019723,
        "meta_mean_motion_ddot": 0,
        "tle_line1": "1 66503U 25263U   25339.91670139 -.01972300  00000+0 -26067-1 0  9991",
        "tle_line2": "2 66503  42.9995 165.0799 0001682 270.9319  35.6214 15.60897792  4532"
      },
      "geometry": {
        "type": "Point",
        "coordinates": [
          14.575185534451068,
          -26.798384216110748
        ]
      }
    }
  ]
}